[{"OBJECT_NAME":"THEA","OBJECT_ID":"2018-099AQ","EPOCH":"2026-03-09T22:33:02.658240","MEAN_MOTION":15.31454284,"ECCENTRICITY":0.00065849,"INCLINATION":97.4542,"RA_OF_ASC_NODE":137.8815,"ARG_OF_PERICENTER":275.4664,"MEAN_ANOMALY":84.5826,"EPHEMERIS_TYPE":0,"CLASSIFICATION_TYPE":"U","NORAD_CAT_ID":43796,"ELEMENT_SET_NO":999,"REV_AT_EPOCH":39748,"BSTAR":0.00074635274,"MEAN_MOTION_DOT":0.00022649,"MEAN_MOTION_DDOT":0},{"OBJECT_NAME":"STARLINK-33601","OBJECT_ID":"2025-015L","EPOCH":"2026-03-09T21:30:01.528992","MEAN_MOTION":15.30238028,"ECCENTRICITY":0.00020816,"INCLINATION":53.162,"RA_OF_ASC_NODE":321.431,"ARG_OF_PERICENTER":149.2895,"MEAN_ANOMALY":210.8228,"EPHEMERIS_TYPE":0,"CLASSIFICATION_TYPE":"U","NORAD_CAT_ID":62768,"ELEMENT_SET_NO":999,"REV_AT_EPOCH":6451,"BSTAR":0.001463407,"MEAN_MOTION_DOT":0.00043288,"MEAN_MOTION_DDOT":0}]
